TDRS 11                 
1 39070U 13004A   17345.16570355  .00000082  00000-0  00000-0 0  9999
2 39070   5.1606 328.5896 0011097 294.7496  65.1424  1.00270897 15517
